NORAD_CAT_ID,OBJECT_NAME,OBJECT_TYPE,EPOCH,MEAN_MOTION,ECCENTRICITY,INCLINATION,RA_OF_ASC_NODE,ARG_OF_PERICENTER,MEAN_ANOMALY,BSTAR,MEAN_MOTION_DOT,MEAN_MOTION_DDOT,TLE_LINE0,TLE_LINE1,TLE_LINE2,SEMIMAJOR_AXIS,PERIOD,APOGEE,PERIGEE,DECAYED
53157.0,STARLINK-4093,PAYLOAD,2023-12-16 22:57:46,15.0884357,0.0001557,53.2161,217.1109,78.7544,281.3623,0.0002251,3.297e-05,0.0,0 STARLINK-4093,1 53157U 22083AB  23350.95678567  .00003297  00000-0  22510-3 0  9996,2 53157  53.2161 217.1109 0001557  78.7544 281.3623 15.08843570 78512,6917.869,95.437,540.812,538.657,0.0
53157.0,STARLINK-4093,PAYLOAD,2023-12-17 19:37:47,15.08839639,0.0001561,53.2141,213.2467,77.1365,282.9801,0.00012753,1.742e-05,0.0,0 STARLINK-4093,1 53157U 22083AB  23351.81791220  .00001742  00000-0  12753-3 0  9995,2 53157  53.2141 213.2467 0001561  77.1365 282.9801 15.08839639 79273,6917.881,95.438,540.826,538.667,0.0
53157.0,STARLINK-4093,PAYLOAD,2023-12-17 21:13:10,15.08841979,0.0001451,53.2147,212.95,82.8743,277.2414,0.00013531,1.866e-05,0.0,0 STARLINK-4093,1 53157U 22083AB  23351.88415059  .00001866  00000-0  13531-3 0  9997,2 53157  53.2147 212.9500 0001451  82.8743 277.2414 15.08841979 78652,6917.874,95.437,540.743,538.736,0.0
53157.0,STARLINK-4093,PAYLOAD,2023-12-18 21:03:57,15.08845646,0.0001479,53.2143,208.4872,89.0847,271.0314,7.7596e-05,9.47e-06,0.0,0 STARLINK-4093,1 53157U 22083AB  23352.87774736  .00000947  00000-0  77596-4 0  9998,2 53157  53.2143 208.4872 0001479  89.0847 271.0314 15.08845646 78807,6917.863,95.437,540.751,538.705,0.0
53157.0,STARLINK-4093,PAYLOAD,2023-12-19 19:19:21,15.08837414,0.0001455,53.2153,204.3227,93.6339,266.482,7.2204e-06,-1.73e-06,0.0,0 STARLINK-4093,1 53157U 22083AB  23353.80511254 -.00000173  00000-0  72204-5 0  9990,2 53157  53.2153 204.3227 0001455  93.6339 266.4820 15.08837414 79577,6917.888,95.438,540.76,538.747,0.0
53157.0,STARLINK-4093,PAYLOAD,2023-12-19 20:54:44,15.08837226,0.0001456,53.2153,204.0253,93.7774,266.3384,1.1882e-06,-2.69e-06,0.0,0 STARLINK-4093,1 53157U 22083AB  23353.87135259 -.00000269  00000-0  11882-5 0  9995,2 53157  53.2153 204.0253 0001456  93.7774 266.3384 15.08837226 78954,6917.889,95.438,540.761,538.747,0.0
53157.0,STARLINK-4093,PAYLOAD,2023-12-20 20:45:31,15.08838612,0.0001448,53.2155,199.5641,94.3442,265.7716,3.1186e-05,2.08e-06,0.0,0 STARLINK-4093,1 53157U 22083AB  23354.86495257  .00000208  00000-0  31186-4 0  9992,2 53157  53.2155 199.5641 0001448  94.3442 265.7716 15.08838612 79105,6917.885,95.438,540.751,538.748,0.0
53157.0,STARLINK-4093,PAYLOAD,2023-12-21 20:36:18,15.08833976,0.0001216,53.2154,195.1028,85.5496,274.5635,1.7424e-05,-1.1e-07,0.0,0 STARLINK-4093,1 53157U 22083AB  23355.85854412 -.00000011  00000-0  17424-4 0  9996,2 53157  53.2154 195.1028 0001216  85.5496 274.5635 15.08833976 79251,6917.899,95.438,540.605,538.923,0.0
53157.0,STARLINK-4093,PAYLOAD,2023-12-22 18:51:43,15.08828286,0.0001304,53.2159,190.9438,91.1829,268.9312,-7.4961e-05,-1.48e-05,0.0,0 STARLINK-4093,1 53157U 22083AB  23356.78591574 -.00001480  00000-0 -74961-4 0  9997,2 53157  53.2159 190.9438 0001304  91.1829 268.9312 15.08828286 80029,6917.916,95.438,540.683,538.879,0.0
53157.0,STARLINK-4093,PAYLOAD,2023-12-23 12:20:57,15.08775501,0.0001514,53.2158,187.6691,102.66,257.4562,0.00066898,0.00010356,0.0,0 STARLINK-4093,1 53157U 22083AB  23357.51455592  .00010356  00000-0  66898-3 0  9997,2 53157  53.2158 187.6691 0001514 102.6600 257.4562 15.08775501 80133,6918.078,95.442,540.99,538.895,0.0
53157.0,STARLINK-4093,PAYLOAD,2023-12-23 18:42:29,15.08831012,0.0001181,53.2162,186.4827,104.0751,256.0372,4.9453e-05,4.99e-06,0.0,0 STARLINK-4093,1 53157U 22083AB  23357.77951199  .00000499  00000-0  49453-4 0  9995,2 53157  53.2162 186.4827 0001181 104.0751 256.0372 15.08831012 80177,6917.908,95.438,540.59,538.956,0.0
53157.0,STARLINK-4093,PAYLOAD,2023-12-23 20:17:53,15.08812821,0.0001312,53.2161,186.1851,102.3686,257.7453,0.00033416,5.03e-05,0.0,0 STARLINK-4093,1 53157U 22083AB  23357.84575669  .00005030  00000-0  33416-3 0  9994,2 53157  53.2161 186.1851 0001312 102.3686 257.7453 15.08812821 79559,6917.963,95.439,540.736,538.921,0.0
53157.0,STARLINK-4093,PAYLOAD,2023-12-24 12:11:44,15.08832976,0.0001135,53.2164,183.2111,98.8268,261.2853,0.00016377,2.319e-05,0.0,0 STARLINK-4093,1 53157U 22083AB  23358.50815484  .00002319  00000-0  16377-3 0  9994,2 53157  53.2164 183.2111 0001135  98.8268 261.2853 15.08832976 80286,6917.902,95.438,540.552,538.982,0.0
53157.0,STARLINK-4093,PAYLOAD,2023-12-24 21:44:03,15.08842655,0.0001187,53.2147,181.4268,93.1768,266.9359,0.0003021,4.524e-05,0.0,0 STARLINK-4093,1 53157U 22083AB  23358.90559369  .00004524  00000-0  30210-3 0  9997,2 53157  53.2147 181.4268 0001187  93.1768 266.9359 15.08842655 79714,6917.872,95.437,540.558,538.916,0.0
53157.0,STARLINK-4093,PAYLOAD,2023-12-25 18:24:04,15.08843193,0.000118,53.2146,177.5604,97.248,262.8647,0.00016504,2.34e-05,0.0,0 STARLINK-4093,1 53157U 22083AB  23359.76671385  .00002340  00000-0  16504-3 0  9999,2 53157  53.2146 177.5604 0001180  97.2480 262.8647 15.08843193 80470,6917.871,95.437,540.552,538.919,0.0
53157.0,STARLINK-4093,PAYLOAD,2023-12-25 21:34:50,15.08845803,0.0001169,53.2145,176.9653,100.4688,259.6436,0.00018838,2.712e-05,0.0,0 STARLINK-4093,1 53157U 22083AB  23359.89919204  .00002712  00000-0  18838-3 0  9993,2 53157  53.2145 176.9653 0001169 100.4688 259.6436 15.08845803 79861,6917.863,95.437,540.536,538.919,0.0
53157.0,STARLINK-4093,PAYLOAD,2023-12-26 21:25:36,15.08836805,0.0001143,53.2147,172.504,103.2418,256.8702,-0.00015225,-2.71e-05,0.0,0 STARLINK-4093,1 53157U 22083AB  23360.89278545 -.00002710  00000-0 -15225-3 0  9998,2 53157  53.2147 172.5040 0001143 103.2418 256.8702 15.08836805 80015,6917.89,95.438,540.546,538.964,0.0
53157.0,STARLINK-4093,PAYLOAD,2023-12-27 14:54:51,15.08837558,0.0001186,53.2157,169.2333,95.173,264.9397,-0.00017178,-3.02e-05,0.0,0 STARLINK-4093,1 53157U 22083AB  23361.62142735 -.00003020  00000-0 -17178-3 0  9995,2 53157  53.2157 169.2333 0001186  95.1730 264.9397 15.08837558 80125,6917.888,95.438,540.573,538.932,0.0
53157.0,STARLINK-4093,PAYLOAD,2023-12-27 21:16:23,15.08837208,0.000126,53.2152,168.0435,78.7286,281.3848,-0.00013538,-2.442e-05,0.0,0 STARLINK-4093,1 53157U 22083AB  23361.88638819 -.00002442  00000-0 -13538-3 0  9999,2 53157  53.2152 168.0435 0001260  78.7286 281.3848 15.08837208 80166,6917.889,95.438,540.626,538.882,0.0
53157.0,STARLINK-4093,PAYLOAD,2023-12-28 11:34:52,15.0882761,0.000125,53.2154,165.3671,88.6934,271.4201,0.00018525,2.661e-05,0.0,0 STARLINK-4093,1 53157U 22083AB  23362.48255510  .00002661  00000-0  18525-3 0  9991,2 53157  53.2154 165.3671 0001250  88.6934 271.4201 15.08827610 80887,6917.918,95.438,540.648,538.919,0.0
53157.0,STARLINK-4093,PAYLOAD,2023-12-28 14:45:39,15.08830084,0.0001249,53.2154,164.7723,89.6023,270.5112,0.00020785,3.021e-05,0.0,0 STARLINK-4093,1 53157U 22083AB  23362.61503490  .00003021  00000-0  20785-3 0  9991,2 53157  53.2154 164.7723 0001249  89.6023 270.5112 15.08830084 80279,6917.911,95.438,540.64,538.912,0.0
53157.0,STARLINK-4093,PAYLOAD,2023-12-28 16:21:02,15.08830731,0.0001248,53.2155,164.4749,89.384,270.7295,0.00021245,3.094e-05,0.0,0 STARLINK-4093,1 53157U 22083AB  23362.68127517  .00003094  00000-0  21245-3 0  9992,2 53157  53.2155 164.4749 0001248  89.3840 270.7295 15.08830731 80282,6917.909,95.438,540.637,538.91,0.0
53157.0,STARLINK-4093,PAYLOAD,2023-12-29 14:36:26,15.08833676,0.0001241,53.2152,160.3123,87.7675,272.3459,0.00012971,1.777e-05,0.0,0 STARLINK-4093,1 53157U 22083AB  23363.60863919  .00001777  00000-0  12971-3 0  9990,2 53157  53.2152 160.3123 0001241  87.7675 272.3459 15.08833676 80428,6917.9,95.438,540.623,538.906,0.0
53157.0,STARLINK-4093,PAYLOAD,2023-12-29 17:47:12,15.08834888,0.0001243,53.2153,159.7175,86.7559,273.3575,0.00013635,1.883e-05,0.0,0 STARLINK-4093,1 53157U 22083AB  23363.74111918  .00001883  00000-0  13635-3 0  9996,2 53157  53.2153 159.7175 0001243  86.7559 273.3575 15.08834888 81078,6917.896,95.438,540.621,538.901,0.0
53157.0,STARLINK-4093,PAYLOAD,2023-12-30 14:27:13,15.08838685,0.0001226,53.2154,155.8527,82.9041,277.2091,0.00011022,1.467e-05,0.0,0 STARLINK-4093,1 53157U 22083AB  23364.60223993  .00001467  00000-0  11022-3 0  9995,2 53157  53.2154 155.8527 0001226  82.9041 277.2091 15.08838685 80571,6917.884,95.438,540.598,538.901,0.0
53157.0,STARLINK-4093,PAYLOAD,2023-12-30 19:13:22,15.08843209,0.0001247,53.2155,154.96,90.2346,269.8789,0.00016463,2.333e-05,0.0,0 STARLINK-4093,1 53157U 22083AB  23364.80095755  .00002333  00000-0  16463-3 0  9997,2 53157  53.2155 154.9600 0001247  90.2346 269.8789 15.08843209 81230,6917.871,95.437,540.598,538.873,0.0
53157.0,STARLINK-4093,PAYLOAD,2023-12-31 09:31:51,15.08835746,0.0001254,53.2153,152.2839,95.9244,264.1891,4.7772e-05,4.72e-06,0.0,0 STARLINK-4093,1 53157U 22083AB  23365.39712213  .00000472  00000-0  47772-4 0  9997,2 53157  53.2153 152.2839 0001254  95.9244 264.1891 15.08835746 81329,6917.893,95.438,540.626,538.891,0.0
53157.0,STARLINK-4093,PAYLOAD,2023-12-31 17:28:47,15.08840178,0.0001236,53.2162,150.7973,94.3705,265.7429,0.00012188,1.652e-05,0.0,0 STARLINK-4093,1 53157U 22083AB  23365.72832244  .00001652  00000-0  12188-3 0  9994,2 53157  53.2162 150.7973 0001236  94.3705 265.7429 15.08840178 80740,6917.88,95.438,540.6,538.89,0.0
53157.0,STARLINK-4093,PAYLOAD,2024-01-01 14:08:47,15.08841803,0.0001246,53.2163,146.9321,94.3447,265.7688,7.9187e-05,9.73e-06,0.0,0 STARLINK-4093,1 53157U 22083AB  24001.58944247  .00000973  00000-0  79187-4 0  9991,2 53157  53.2163 146.9321 0001246  94.3447 265.7688 15.08841803 80876,6917.875,95.437,540.602,538.878,0.0
53157.0,STARLINK-4093,PAYLOAD,2024-01-01 17:19:33,15.08844415,0.0001267,53.2166,146.3373,86.2479,273.8658,8.4084e-05,1.051e-05,0.0,0 STARLINK-4093,1 53157U 22083AB  24001.72192099  .00001051  00000-0  84084-4 0  9997,2 53157  53.2166 146.3373 0001267  86.2479 273.8658 15.08844415 81520,6917.867,95.437,540.608,538.855,0.0
